{"type":"FeatureCollection","name":"Bustuchin boundary","features":[{"type":"Feature","properties":{"shapeName":"BUSTUCHIN","shapeISO":"","shapeID":"2599482B71517510314542","shapeGroup":"ROU","shapeType":"ADM2"},"geometry":{"type":"Polygon","coordinates":[[[23.765557199000057,44.96442298000005],[23.761272801000075,44.97141178000004],[23.760829544000046,44.98768371500006],[23.754928765000045,44.99538428000005],[23.75838304800004,45.00025276900004],[23.758090636000077,45.00566639500005],[23.753666552000027,45.01177619600003],[23.744769649000034,45.013742930000035],[23.74468168800007,45.01608571200006],[23.73941737000007,45.01544869700007],[23.72360683200003,45.006065198000044],[23.722777912000026,45.00734206100003],[23.72017119700007,45.005844171000035],[23.719615615000066,45.00693834800006],[23.70736610700004,45.00833770400004],[23.703502827000023,45.006144963000054],[23.70465065800005,45.00285280300005],[23.70319384100003,45.00255382700004],[23.693614378000063,45.01048801300004],[23.69247221300003,45.01612412800006],[23.67785783000005,45.01704050200004],[23.67127580500005,45.02137771100007],[23.669185764000076,45.016426859000035],[23.67145920400003,45.01608647200004],[23.672416724000072,45.013314896000054],[23.66859978100007,45.009899336000046],[23.66866497500007,45.00780960900005],[23.664302118000023,45.00524268800007],[23.664960024000038,44.99763554900005],[23.669945812000037,44.98577626000008],[23.67316655600007,44.98333039500005],[23.67344299100006,44.979697990000034],[23.677660872000047,44.975110640000025],[23.67351715700005,44.97390905100008],[23.679478,44.96548571000005],[23.67946679000005,44.95761614500003],[23.677195637000068,44.95532594500003],[23.68120037700004,44.94135751300007],[23.678320609000025,44.93865034000004],[23.681016772000078,44.93417585700007],[23.67892336400007,44.93077700900005],[23.68067047100004,44.92807613100007],[23.689903481000044,44.929203544000075],[23.717862121000053,44.92745880100006],[23.72532908100004,44.924676678000026],[23.730625651000025,44.92053006800006],[23.738593071000025,44.93061572700003],[23.739724543000023,44.93713376300008],[23.749009443000034,44.94286260400003],[23.753716448000034,44.94941113800007],[23.755985793000036,44.95688269400006],[23.761849633000054,44.96428008000004],[23.765557199000057,44.96442298000005]]]}}]}